STARLINK-37815          
1 69434U 26126Q   26201.13773572  .00174733  00000+0  11493-2 0  9993
2 69434  97.2841  62.7472 0001185 150.0551 210.0782 15.75175661  7932
STARLINK-37801          
1 69435U 26126R   26201.25084373 -.00295424  00000+0 -21445-2 0  9992
2 69435  97.2863  62.9016 0001374 160.3681 199.7636 15.74134104  8007
STARLINK-37800          
1 69436U 26126S   26201.12575084  .00186673  00000+0  12270-2 0  9992
2 69436  97.2856  62.7648 0004115  59.2102 300.9568 15.75149374  7936
STARLINK-37792          
1 69437U 26126T   26201.25004630 -.02387150  00000+0 -36832-1 0  9997
2 69437  97.2858  62.9552 0001635  86.9320  28.0938 15.57703139  5963
STARLINK-37783          
1 69438U 26126U   26201.25004630 -.02565832  00000+0 -32824-1 0  9990
2 69438  97.2858  62.9601 0001978  86.4666  50.0861 15.62845928  5966
STARLINK-37771          
1 69439U 26126V   26201.14206332  .00114981  00000+0  77865-3 0  9999
2 69439  97.2850  62.7420 0003153 332.1965  27.9131 15.74666716  7937
STARLINK-37747          
1 69440U 26126W   26201.11091786  .00145189  00000+0  95403-3 0  9995
2 69440  97.2881  62.7853 0000721 152.9926 207.1377 15.75281884  7930
STARLINK-37629          
1 69443U 26127A   26201.25004630 -.00753097  00000+0 -80256-2 0  9990
2 69443  53.1595  98.2074 0000774  93.8776 295.4093 15.65665031  5953
STARLINK-37509          
1 69444U 26127B   26201.25004630 -.02069035  00000+0 -35792-1 0  9999
2 69444  53.1598  98.4043 0001155 111.8037 179.9272 15.53618219  5903
STARLINK-37641          
1 69445U 26127C   26201.25004630 -.02054727  00000+0 -33340-1 0  9999
2 69445  53.1597  98.1906 0000498  86.2036 310.1300 15.55334419  5923
STARLINK-37522          
1 69446U 26127D   26201.25004630 -.01473734  00000+0 -22267-1 0  9998
2 69446  53.1592  98.3692 0001034 102.8591 206.1648 15.57209933  5902
STARLINK-37640          
1 69447U 26127E   26201.25004630 -.01873780  00000+0 -32195-1 0  9995
2 69447  53.1597  98.1605 0000661  93.2296 316.9380 15.54027047  5926
STARLINK-37572          
1 69448U 26127F   26201.25004630 -.01940395  00000+0 -24530-1 0  9997
2 69448  53.1609  98.1244 0001326  71.6013 357.2891 15.62205653  5965
STARLINK-37643          
1 69449U 26127G   26201.25004630 -.02032339  00000+0 -30904-1 0  9991
2 69449  53.1600  98.2764 0000703  92.7302 261.5273 15.57031782  5907
STARLINK-37601          
1 69450U 26127H   26201.25004630 -.01878843  00000+0 -22141-1 0  9994
2 69450  53.1593  98.1025 0000536 103.4191 336.5962 15.63880283  5902
STARLINK-37578          
1 69451U 26127J   26201.25004630 -.01947505  00000+0 -27592-1 0  9992
2 69451  53.1591  98.0704 0000943  80.3595  14.0517 15.59290013  5979
STARLINK-37577          
1 69452U 26127K   26201.25004630  .00028439  00000+0  51762-3 0  9994
2 69452  53.1590  98.4264 0001153  87.8742 189.8351 15.49303956  5971
STARLINK-37500          
1 69453U 26127L   26201.25004630 -.01764802  00000+0 -21790-1 0  9995
2 69453  53.1585  97.9504 0001173  82.4905  71.0818 15.62502216  5976
STARLINK-37575          
1 69454U 26127M   26201.25004630  .00032888  00000+0  59712-3 0  9992
2 69454  53.1594  98.3619 0001218 114.5022 194.5029 15.49297939  6026
STARLINK-37642          
1 69455U 26127N   26201.25004630 -.01876677  00000+0 -25146-1 0  9990
2 69455  53.1593  98.0086 0001116  78.6722  45.8040 15.60606052  5950
STARLINK-37513          
1 69456U 26127P   26201.25004630 -.01846321  00000+0 -31411-1 0  9996
2 69456  53.1595  97.6219 0000771  87.5250 224.5083 15.54241548  6027
STARLINK-37563          
1 69457U 26127Q   26201.25004630  .00035680  00000+0  64732-3 0  9996
2 69457  53.1584  98.4794 0001136 112.2579 138.3766 15.49278991  6025
STARLINK-37565          
1 69458U 26127R   26201.25004630  .00044515  00000+0  80475-3 0  9996
2 69458  53.1594  98.1403 0000695  82.7659 334.8384 15.49277903  6021
STARLINK-37498          
1 69459U 26127S   26201.25004630 -.01917398  00000+0 -29237-1 0  9995
2 69459  53.1589  98.0550 0000960  75.5990  25.0134 15.57305773  5859
STARLINK-37384          
1 69460U 26127T   26201.25004630 -.01555718  00000+0 -17929-1 0  9996
2 69460  53.1589  97.7193 0000951 100.5429 165.3552 15.64351771  6025
STARLINK-37707          
1 69461U 26127U   26201.25004630  .00032061  00000+0  58227-3 0  9993
2 69461  53.1597  98.2801 0000453  98.2054 249.6690 15.49302911  5923
STARLINK-37525          
1 69462U 26127V   26201.25004630 -.01888998  00000+0 -32459-1 0  9992
2 69462  53.1588  97.9045 0001379  75.7901  98.2631 15.54047378  6023
STARLINK-37526          
1 69463U 26127W   26201.25004630  .00051860  00000+0  93513-3 0  9990
2 69463  53.1597  98.1720 0001902  83.4371 317.3340 15.49283245  5925
STARLINK-37574          
1 69464U 26127X   26201.25004630  .00030291  00000+0  55025-3 0  9992
2 69464  53.1589  98.3557 0001535  97.7981 211.8475 15.49325658  5915
STARLINK-37535          
1 69465U 26127Y   26201.25004630 -.02268889  00000+0 -41562-1 0  9992
2 69465  53.1596  98.0072 0001698  81.8527  40.0546 15.52374527  5861
