OBJECT_NAME,OBJECT_ID,EPOCH,MEAN_MOTION,ECCENTRICITY,INCLINATION,RA_OF_ASC_NODE,ARG_OF_PERICENTER,MEAN_ANOMALY,EPHEMERIS_TYPE,CLASSIFICATION_TYPE,NORAD_CAT_ID,ELEMENT_SET_NO,REV_AT_EPOCH,BSTAR,MEAN_MOTION_DOT,MEAN_MOTION_DDOT
STARLINK-37815,2026-126Q,2026-07-20T03:18:20.366208,15.75175661,.00011856,97.2841,62.7472,150.0551,210.0782,0,U,69434,999,793,.11492598E-2,.174733E-2,0
STARLINK-37801,2026-126R,2026-07-20T06:01:12.898272,15.74134104,.00013741,97.2863,62.9016,160.3681,199.7636,0,U,69435,999,800,-.21445405E-2,-.295424E-2,0
STARLINK-37800,2026-126S,2026-07-20T03:01:04.872576,15.75149374,.00041156,97.2856,62.7648,59.2102,300.9568,0,U,69436,999,793,.12270277E-2,.186673E-2,0
STARLINK-37792,2026-126T,2026-07-20T06:00:04.000320,15.57703139,.00016353,97.2858,62.9552,86.9320,28.0938,0,U,69437,999,596,-.36832488E-1,-.238715E-1,0
STARLINK-37783,2026-126U,2026-07-20T06:00:04.000320,15.62845928,.00019786,97.2858,62.9601,86.4666,50.0861,0,U,69438,999,596,-.32823827E-1,-.2565832E-1,0
STARLINK-37771,2026-126V,2026-07-20T03:24:34.270848,15.74666716,.00031535,97.2850,62.7420,332.1965,27.9131,0,U,69439,999,793,.77865004E-3,.114981E-2,0
STARLINK-37747,2026-126W,2026-07-20T02:39:43.303104,15.75281884,.00007214,97.2881,62.7853,152.9926,207.1377,0,U,69440,999,793,.95403327E-3,.145189E-2,0
STARLINK-37629,2026-127A,2026-07-20T06:00:04.000320,15.65665031,.00007749,53.1595,98.2074,93.8776,295.4093,0,U,69443,999,595,-.80256189E-2,-.753097E-2,0
STARLINK-37509,2026-127B,2026-07-20T06:00:04.000320,15.53618219,.0001155,53.1598,98.4043,111.8037,179.9272,0,U,69444,999,590,-.35791662E-1,-.2069035E-1,0
STARLINK-37641,2026-127C,2026-07-20T06:00:04.000320,15.55334419,.00004984,53.1597,98.1906,86.2036,310.1300,0,U,69445,999,592,-.33339542E-1,-.2054727E-1,0
STARLINK-37522,2026-127D,2026-07-20T06:00:04.000320,15.57209933,.0001034,53.1592,98.3692,102.8591,206.1648,0,U,69446,999,590,-.22267068E-1,-.1473734E-1,0
STARLINK-37640,2026-127E,2026-07-20T06:00:04.000320,15.54027047,.00006615,53.1597,98.1605,93.2296,316.9380,0,U,69447,999,592,-.32194846E-1,-.187378E-1,0
STARLINK-37572,2026-127F,2026-07-20T06:00:04.000320,15.62205653,.00013263,53.1609,98.1244,71.6013,357.2891,0,U,69448,999,596,-.24530365E-1,-.1940395E-1,0
STARLINK-37643,2026-127G,2026-07-20T06:00:04.000320,15.57031782,.00007031,53.1600,98.2764,92.7302,261.5273,0,U,69449,999,590,-.30904087E-1,-.2032339E-1,0
STARLINK-37601,2026-127H,2026-07-20T06:00:04.000320,15.63880283,.00005369,53.1593,98.1025,103.4191,336.5962,0,U,69450,999,590,-.22141065E-1,-.1878843E-1,0
STARLINK-37578,2026-127J,2026-07-20T06:00:04.000320,15.59290013,.00009434,53.1591,98.0704,80.3595,14.0517,0,U,69451,999,597,-.27592314E-1,-.1947505E-1,0
STARLINK-37577,2026-127K,2026-07-20T06:00:04.000320,15.49303956,.00011537,53.1590,98.4264,87.8742,189.8351,0,U,69452,999,597,.51761687E-3,.28439E-3,0
STARLINK-37500,2026-127L,2026-07-20T06:00:04.000320,15.62502216,.00011735,53.1585,97.9504,82.4905,71.0818,0,U,69453,999,597,-.21789724E-1,-.1764802E-1,0
STARLINK-37575,2026-127M,2026-07-20T06:00:04.000320,15.49297939,.0001218,53.1594,98.3619,114.5022,194.5029,0,U,69454,999,602,.59712004E-3,.32888E-3,0
STARLINK-37642,2026-127N,2026-07-20T06:00:04.000320,15.60606052,.00011168,53.1593,98.0086,78.6722,45.8040,0,U,69455,999,595,-.25145508E-1,-.1876677E-1,0
STARLINK-37513,2026-127P,2026-07-20T06:00:04.000320,15.54241548,.00007717,53.1595,97.6219,87.5250,224.5083,0,U,69456,999,602,-.31410928E-1,-.1846321E-1,0
STARLINK-37563,2026-127Q,2026-07-20T06:00:04.000320,15.49278991,.00011364,53.1584,98.4794,112.2579,138.3766,0,U,69457,999,602,.64732174E-3,.3568E-3,0
STARLINK-37565,2026-127R,2026-07-20T06:00:04.000320,15.49277903,.00006958,53.1594,98.1403,82.7659,334.8384,0,U,69458,999,602,.80475405E-3,.44515E-3,0
STARLINK-37498,2026-127S,2026-07-20T06:00:04.000320,15.57305773,.00009607,53.1589,98.0550,75.5990,25.0134,0,U,69459,999,585,-.29237092E-1,-.1917398E-1,0
STARLINK-37384,2026-127T,2026-07-20T06:00:04.000320,15.64351771,.00009511,53.1589,97.7193,100.5429,165.3552,0,U,69460,999,602,-.17929165E-1,-.1555718E-1,0
STARLINK-37707,2026-127U,2026-07-20T06:00:04.000320,15.49302911,.00004535,53.1597,98.2801,98.2054,249.6690,0,U,69461,999,592,.58227327E-3,.32061E-3,0
STARLINK-37525,2026-127V,2026-07-20T06:00:04.000320,15.54047378,.00013799,53.1588,97.9045,75.7901,98.2631,0,U,69462,999,602,-.32458696E-1,-.1888998E-1,0
STARLINK-37526,2026-127W,2026-07-20T06:00:04.000320,15.49283245,.00019025,53.1597,98.1720,83.4371,317.3340,0,U,69463,999,592,.93513249E-3,.5186E-3,0
STARLINK-37574,2026-127X,2026-07-20T06:00:04.000320,15.49325658,.00015355,53.1589,98.3557,97.7981,211.8475,0,U,69464,999,591,.55025261E-3,.30291E-3,0
STARLINK-37535,2026-127Y,2026-07-20T06:00:04.000320,15.52374527,.00016988,53.1596,98.0072,81.8527,40.0546,0,U,69465,999,586,-.41562149E-1,-.2268889E-1,0
